#aV2019  3  6  0  0  0.00000000     288 DD+AD WGS84 FIT  NGA
## 2043 259200.00000000   300.00000000 58548 0.0000000000000
+   31     1  2  3  5  6  7  8  9 10 11 12 13 14 15 16 17 18
+         19 20 21 22 23 24 25 26 27 28 29 30 31 32  0  0  0
+          0  0  0  0  0  0  0  0  0  0  0  0  0  0  0  0  0
+          0  0  0  0  0  0  0  0  0  0  0  0  0  0  0  0  0
+          0  0  0  0  0  0  0  0  0  0  0  0  0  0  0  0  0
++         2  2  2  2  2  2  2  2  2  2  2  2  2  2  2  2  2
++         2  2  2  2  2  2  2  2  2  2  2  2  2  2  0  0  0
++         0  0  0  0  0  0  0  0  0  0  0  0  0  0  0  0  0
++         0  0  0  0  0  0  0  0  0  0  0  0  0  0  0  0  0
++         0  0  0  0  0  0  0  0  0  0  0  0  0  0  0  0  0
%c cc cc ccc ccc cccc cccc cccc cccc ccccc ccccc ccccc ccccc
%c cc cc ccc ccc cccc cccc cccc cccc ccccc ccccc ccccc ccccc
%f  0.0000000  0.000000000  0.00000000000  0.000000000000000
%f  0.0000000  0.000000000  0.00000000000  0.000000000000000
%i    0    0    0    0      0      0      0      0         0
%i    0    0    0    0      0      0      0      0         0
/*      NGA, ST. LOUIS,MO.                                  
/*   EPHEMERIS COMPUTED FROM 2 DAYS OF DATA                 
/*   EPOCHA v3 SMOOTHER                                     
/*   G1762 IERS2010 SATAF SATAPC                            
*  2019  3  6 11 35  0.00000000
P  1 -13301.823069  16160.419899  15986.817228   -175.445342                    
V  1   1099.114687 -20772.148067  21985.660971     -0.073615                    
P  2  14046.812260   7830.259358 -20565.185874   -156.510144                    
V  2  -2887.784929  27364.132063   8037.250490     -0.097325                    
P  3 -22584.500705  12953.355114  -5076.979994    185.537551                    
V  3  -6975.568152   -135.801393  30972.299114      0.012643                    
P  5  23233.449866    171.293405 -13169.881376      1.159138                    
V  5 -14175.844548   8724.433041 -24919.499528      0.000230                    
P  6   8460.154733  19256.859552 -16151.075633    261.438425                    
V  6  -4417.095911  20169.848362  21698.514877     -0.086363                    
P  7  -6586.386832  25150.163338  -3775.610513     20.211338                    
V  7  -2536.130429  -5619.875114 -31454.769957     -0.072991                    
P  8 -20797.172813  -1465.368313  16615.068381   -135.152013                    
V  8 -15765.937042 -13822.545547 -20814.785250     -0.013974                    
P  9  -1907.460051  16829.190203 -20503.000934    449.320170                    
V  9 -21307.223440 -14864.334705 -10251.914275     -0.056319                    
P 10  -4458.999273 -14569.326049  21804.433683    103.284619                    
V 10  25594.308733 -10208.092679  -1781.200687     -0.082762                    
P 11 -12564.973979  11632.176141  19818.524972   -649.709550                    
V 11  -9056.578956 -24957.513644   8439.896255      0.063684                    
P 12  23927.259855 -10661.597823  -3945.597558    262.491364                    
V 12   5209.026078    578.793635  31862.203297     -0.032494                    
P 13  21562.886140  10259.424579  11552.360088    -72.704307                    
V 13   8950.303506  12018.498552 -27069.844064      0.013478                    
P 14 -18089.019437 -19390.243563   3053.851382    -89.355940                    
V 14   4335.996515    414.312466  31326.127030      0.013658                    
P 15  20249.440792  -2132.685851  16992.350572   -324.860755                    
V 15  17405.078808  13676.565098 -18350.850038      0.018022                    
P 16 -23993.732967   -928.932198 -12003.666494    -23.523985                    
V 16  13701.282959  -5679.185313 -26928.844008     -0.025930                    
P 17  12009.316242  20810.619315  11828.321339     19.365423                    
V 17 -11860.499804  -8177.116581  27290.880880      0.056885                    
P 18 -15130.267696   6265.197505  20402.825450     32.232744                    
V 18   1393.208057 -27052.206565   9263.189084      0.035986                    
P 19  17878.532479  19360.144389   2554.058945   -345.374146                    
V 19  -4159.594918   -859.965195  32062.630870      0.042418                    
P 20   5346.753344 -18429.062236  18198.233940    522.833631                    
V 20  21557.057754  -9536.225781 -16036.824913      0.003485                    
P 21   1935.285833 -26550.182121    315.813096   -237.812842                    
V 21   3105.535439    809.733910 -31372.186830      0.073005                    
P 22 -24646.252148   9345.892322   3233.664557   -658.691454                    
V 22   1763.588613  -5164.390984  30665.923150     -0.077399                    
P 23 -13229.766470   9032.931498 -20920.447305   -195.011838                    
V 23 -21554.502377 -16773.244690   5888.725288      0.013384                    
P 24  14500.459003 -12336.189614  18234.431418    -63.018087                    
V 24    -64.856493  23743.971552  16305.462298     -0.004661                    
P 25  15690.198061 -16428.773872 -13746.389762   -729.421927                    
V 25  16725.249590  -4501.012790  25089.464441     -0.051340                    
P 26 -17234.626330  -7218.973654 -18955.444103    141.866253                    
V 26  21469.909734 -10830.846459 -15233.221074      0.101564                    
P 27 -22980.364282 -10811.065284   8186.201781    -80.507865                    
V 27  -7094.237495  -7861.320631 -29669.220246     -0.077896                    
P 28   1797.792987  15063.567445  22420.499038    765.838044                    
V 28 -25793.352487   7727.412037  -3122.988360      0.006521                    
P 29   7239.270476 -13058.319904 -21989.506331    255.717924                    
V 29  20964.725843  18247.054235  -3933.371909     -0.087745                    
P 30    712.638959  25433.530842   7306.157526    -63.715793                    
V 30  -5020.193758   8561.294076 -29546.111874     -0.065635                    
P 31  -8999.723773 -18103.103124 -16984.296454     54.095370                    
V 31   5624.353161 -21111.024096  19954.228310     -0.026480                    
P 32 -15315.202528 -19800.521133   9091.446165   -194.651261                    
V 32  10655.908815   4923.280586  28705.791479      0.187636                    
EOF
